{
  "norad_id": 40485,
  "name": "MMS 4",
  "history": [
    {
      "epoch": "2026-03-28T22:00:01.999584Z",
      "apogee_km": 173933.45091119694,
      "perigee_km": 9448.00562924819,
      "latitude_deg": -50.85757914249463,
      "longitude_deg": 169.70764468642653,
      "height_km": 72175.41124128185,
      "semi_major_axis_km": 98068.86527022255,
      "eccentricity": 0.83862215,
      "inclination_deg": 71.0646,
      "raan_deg": 349.8642,
      "arg_perigee_deg": 165.8153,
      "mean_anomaly_deg": 30.3997,
      "mean_motion_rev_day": 0.28268713
    },
    {
      "epoch": "2026-03-29T06:00:02.998944Z",
      "apogee_km": 173745.30918871754,
      "perigee_km": 9443.401608450364,
      "latitude_deg": -35.285067486602244,
      "longitude_deg": 59.65992963829081,
      "height_km": 118524.55397924369,
      "semi_major_axis_km": 97972.49239858394,
      "eccentricity": 0.8385104,
      "inclination_deg": 71.0589,
      "raan_deg": 349.8685,
      "arg_perigee_deg": 165.7866,
      "mean_anomaly_deg": 64.4326,
      "mean_motion_rev_day": 0.28310434
    },
    {
      "epoch": "2026-03-30T06:00:01.999296Z",
      "apogee_km": 173657.14574016965,
      "perigee_km": 9428.818850714459,
      "latitude_deg": -15.355853794353287,
      "longitude_deg": 66.88913212290242,
      "height_km": 173238.84469563456,
      "semi_major_axis_km": 97921.11929544205,
      "eccentricity": 0.8385746,
      "inclination_deg": 71.0303,
      "raan_deg": 349.8741,
      "arg_perigee_deg": 165.7639,
      "mean_anomaly_deg": 166.5026,
      "mean_motion_rev_day": 0.28332716
    },
    {
      "epoch": "2026-03-30T06:00:02.000160Z",
      "apogee_km": 173657.14769859207,
      "perigee_km": 9428.816892292063,
      "latitude_deg": -15.355853643257895,
      "longitude_deg": 66.88912856668485,
      "height_km": 173238.8466383125,
      "semi_major_axis_km": 97921.11929544205,
      "eccentricity": 0.83857462,
      "inclination_deg": 71.0303,
      "raan_deg": 349.8741,
      "arg_perigee_deg": 165.7639,
      "mean_anomaly_deg": 166.5026,
      "mean_motion_rev_day": 0.28332716
    },
    {
      "epoch": "2026-03-30T14:00:03.000384Z",
      "apogee_km": 173663.01140615897,
      "perigee_km": 9425.229645421201,
      "latitude_deg": -10.208043536506858,
      "longitude_deg": -51.66995622193826,
      "height_km": 172656.62684456463,
      "semi_major_axis_km": 97922.25752579008,
      "eccentricity": 0.83861313,
      "inclination_deg": 71.0328,
      "raan_deg": 349.8703,
      "arg_perigee_deg": 165.7649,
      "mean_anomaly_deg": 200.5206,
      "mean_motion_rev_day": 0.28332222
    },
    {
      "epoch": "2026-03-30T22:00:00.999936Z",
      "apogee_km": 173681.24282354215,
      "perigee_km": 9425.0786241555,
      "latitude_deg": -4.753282121498707,
      "longitude_deg": -170.17419914287362,
      "height_km": 163359.36788023968,
      "semi_major_axis_km": 97931.29772384881,
      "eccentricity": 0.83862957,
      "inclination_deg": 71.0423,
      "raan_deg": 349.8659,
      "arg_perigee_deg": 165.7653,
      "mean_anomaly_deg": 234.5381,
      "mean_motion_rev_day": 0.28328299
    },
    {
      "epoch": "2026-03-31T22:00:03.999744Z",
      "apogee_km": 175157.18328166933,
      "perigee_km": 9418.396276438689,
      "latitude_deg": 29.729548064900783,
      "longitude_deg": -158.85164866815978,
      "height_km": 63894.01345672875,
      "semi_major_axis_km": 98665.92677905402,
      "eccentricity": 0.8398988,
      "inclination_deg": 71.0519,
      "raan_deg": 349.8533,
      "arg_perigee_deg": 165.7709,
      "mean_anomaly_deg": 336.8398,
      "mean_motion_rev_day": 0.28012506
    }
  ]
}